      2.10          N: GNSS NAV DATA                        RINEX VERSION / TYPE
fic2rin                                 03/21/2022 00:17:04 PGM / RUN BY / DATE
                                                            END OF HEADER
23 22  3 20  2 29 36.0-8.254777640104e-06-3.183231456205e-12 0.000000000000e+00
    1.860000000000e+02 3.681250000000e+01 4.874131598574e-09 2.725032172574e+00
    1.937150955200e-06 2.016037004068e-03 4.146248102188e-06 5.153699495316e+03
    8.976000000000e+03-1.061707735062e-07-1.528385584126e+00 5.029141902924e-08
    9.674223627617e-01 3.045937500000e+02 2.995120075802e+00-8.368920027683e-09
    2.417957860507e-10 1.000000000000e+00 2.202000000000e+03 0.000000000000e+00
    2.400000000000e+00 0.000000000000e+00-8.381903171539e-09 1.860000000000e+02
    1.800000000000e+03 4.000000000000e+00
16 22  3 20  1 59 44.0-4.826108925045e-04-4.320099833421e-12 0.000000000000e+00
    3.000000000000e+00 2.462500000000e+01 4.783056376354e-09 4.610311864280e-02
    1.460313796997e-06 1.280041935388e-02 2.497807145119e-06 5.153614564896e+03
    7.184000000000e+03 8.940696716309e-08 1.731048618586e+00 1.974403858185e-07
    9.695023352980e-01 3.368750000000e+02 7.182576537200e-01-8.648574533558e-09
    2.071514858337e-10 1.000000000000e+00 2.202000000000e+03 0.000000000000e+00
    2.400000000000e+00 0.000000000000e+00-1.024454832077e-08 3.000000000000e+00
    6.870000000000e+03 4.000000000000e+00
16 22  3 20  3 59 44.0-4.826416261494e-04-4.320099833421e-12 0.000000000000e+00
    2.800000000000e+01 3.303125000000e+01 4.688052419058e-09 1.096257431111e+00
    1.806765794754e-06 1.280196418520e-02 3.019347786903e-06 5.153617900848e+03
    1.438400000000e+04-1.210719347000e-07 1.730987591495e+00 1.043081283569e-07
    9.695033213048e-01 3.277500000000e+02 7.183200969153e-01-8.569285516567e-09
    4.321608583773e-11 1.000000000000e+00 2.202000000000e+03 0.000000000000e+00
    2.400000000000e+00 0.000000000000e+00-1.024454832077e-08 2.800000000000e+01
    7.200000000000e+03 4.000000000000e+00
 2 22  3 20  4  0  0.0-6.524450145662e-04-4.547473508865e-13 0.000000000000e+00
    1.000000000000e+02 2.034375000000e+01 4.186245802512e-09-1.881716788372e+00
    1.370906829834e-06 2.058389771264e-02 1.391768455505e-05 5.153634185791e+03
    1.440000000000e+04 1.620501279831e-07-2.625379832945e+00 4.712492227554e-07
    9.656505831771e-01 1.100312500000e+02-1.431017270699e+00-7.631746464302e-09
    3.350139546759e-10 1.000000000000e+00 2.202000000000e+03 0.000000000000e+00
    2.400000000000e+00 0.000000000000e+00-1.769512891769e-08 1.000000000000e+02
    7.200000000000e+03 4.000000000000e+00
 1 22  3 20  4  0  0.0 4.047430120409e-04-9.094947017729e-12 0.000000000000e+00
    7.200000000000e+01 3.600000000000e+01 3.831588172456e-09-2.016998331048e+00
    1.635402441025e-06 1.156704069581e-02 1.215748488903e-05 5.153666692734e+03
    1.440000000000e+04 1.266598701477e-07-2.535474378125e+00-1.005828380585e-07
    9.873515845738e-01 1.569375000000e+02 8.845649034616e-01-7.465668117901e-09
    4.878774649119e-10 1.000000000000e+00 2.202000000000e+03 0.000000000000e+00
    2.400000000000e+00 0.000000000000e+00 5.122274160385e-09 7.200000000000e+01
    7.200000000000e+03 4.000000000000e+00
 4 22  3 20  4  0  0.0-1.823836937547e-04 2.728484105319e-12 0.000000000000e+00
    3.900000000000e+01-7.081250000000e+01 4.524831334530e-09-2.763243551842e-01
   -3.905966877937e-06 1.741513027810e-03 9.106472134590e-06 5.153642086029e+03
    1.440000000000e+04 1.303851604462e-08-4.189624915609e-01 4.284083843231e-08
    9.615078625019e-01 2.035000000000e+02-3.011090791972e+00-8.096765834225e-09
   -6.853856919223e-10 1.000000000000e+00 2.202000000000e+03 0.000000000000e+00
    2.400000000000e+00 0.000000000000e+00-4.190951585770e-09 3.900000000000e+01
    7.200000000000e+03 4.000000000000e+00
 3 22  3 20  4  0  0.0-1.712581142783e-04-1.659827830736e-11 0.000000000000e+00
    8.200000000000e+01 3.359375000000e+01 4.811271837355e-09 3.128504972984e+00
    1.711770892143e-06 3.950472455472e-03 3.844499588013e-06 5.153651739120e+03
    1.440000000000e+04 1.862645149231e-08-1.500616765729e+00-1.080334186554e-07
    9.725408512587e-01 3.086875000000e+02 9.461614641771e-01-8.303917320059e-09
    2.000083311498e-10 1.000000000000e+00 2.202000000000e+03 0.000000000000e+00
    3.400000000000e+00 0.000000000000e+00 1.862645149231e-09 8.200000000000e+01
    7.200000000000e+03 4.000000000000e+00
19 22  3 20  4  0  0.0 1.333206892014e-04 5.002220859751e-12 0.000000000000e+00
    8.000000000000e+00-1.050625000000e+02 4.130529195978e-09 2.552689306122e+00
   -5.576759576797e-06 9.054242749698e-03 9.339302778244e-06 5.153693504333e+03
    1.440000000000e+04 1.844018697739e-07 2.795044463587e+00 4.656612873077e-08
    9.784820673285e-01 2.062500000000e+02 2.021058415870e+00-7.858541625516e-09
   -4.828772566331e-10 1.000000000000e+00 2.202000000000e+03 0.000000000000e+00
    2.400000000000e+00 0.000000000000e+00-1.583248376846e-08 8.000000000000e+00
    7.200000000000e+03 4.000000000000e+00
10 22  3 20  4  0  0.0-3.522876650095e-04-1.159605744760e-11 0.000000000000e+00
    2.000000000000e+01 3.584375000000e+01 4.790556688772e-09 2.220352802035e+00
    1.778826117516e-06 7.547209039330e-03 4.405155777931e-06 5.153673891068e+03
    1.440000000000e+04-2.086162567139e-07-1.503397392639e+00-9.685754776001e-08
    9.723604617562e-01 3.035000000000e+02-2.498857816555e+00-8.267130073437e-09
    2.650110387735e-10 1.000000000000e+00 2.202000000000e+03 0.000000000000e+00
    2.400000000000e+00 0.000000000000e+00 2.328306436539e-09 2.000000000000e+01
    7.200000000000e+03 4.000000000000e+00
 8 22  3 20  4  0  0.0-6.053596735001e-05-1.477928890381e-12 0.000000000000e+00
    1.400000000000e+01-9.440625000000e+01 4.509116394226e-09 2.066773167798e-01
   -4.867091774940e-06 7.405466050841e-03 7.189810276031e-06 5.153735113144e+03
    1.440000000000e+04 7.636845111847e-08 2.667847646974e+00 2.607703208923e-08
    9.644590393274e-01 2.423750000000e+02 1.340376731728e-01-8.269630177576e-09
   -3.796586714504e-10 1.000000000000e+00 2.202000000000e+03 0.000000000000e+00
    2.400000000000e+00 0.000000000000e+00 5.122274160385e-09 1.400000000000e+01
    7.200000000000e+03 4.000000000000e+00
 6 22  3 20  4  0  0.0 2.373056486249e-04 1.284661266254e-11 0.000000000000e+00
    7.000000000000e+00 2.937500000000e+01 3.818016178556e-09-1.734477505459e+00
    1.542270183563e-06 2.691699191928e-03 1.365132629871e-05 5.153695322037e+03
    1.440000000000e+04-8.009374141693e-08-2.543745320494e+00 2.235174179077e-08
    9.867188944483e-01 1.327812500000e+02-9.122524772402e-01-7.626031940555e-09
    4.146601294017e-10 1.000000000000e+00 2.202000000000e+03 0.000000000000e+00
    2.400000000000e+00 0.000000000000e+00 3.725290298462e-09 7.000000000000e+00
    7.200000000000e+03 4.000000000000e+00
 5 22  3 20  4  0  0.0-7.529743015766e-05-1.364242052659e-12 0.000000000000e+00
    1.020000000000e+02 3.753125000000e+01 5.206288291376e-09 6.412745492819e-01
    2.223998308182e-06 5.873375572264e-03 4.436820745468e-06 5.153678030014e+03
    1.440000000000e+04 1.862645149231e-09-1.541474006431e+00 2.980232238770e-08
    9.595455363745e-01 2.936562500000e+02 1.008017436841e+00-8.648217375824e-09
    2.385813664430e-10 1.000000000000e+00 2.202000000000e+03 0.000000000000e+00
    2.400000000000e+00 0.000000000000e+00-1.117587089539e-08 1.020000000000e+02
    7.200000000000e+03 4.000000000000e+00
12 22  3 20  4  0  0.0-1.875418238342e-04-5.798028723802e-12 0.000000000000e+00
    4.500000000000e+01 4.181250000000e+01 4.635907389865e-09 2.955115195541e+00
    2.143904566765e-06 8.737062453292e-03 2.598389983177e-06 5.153578792572e+03
    1.440000000000e+04 3.166496753693e-08 1.712378243633e+00-7.823109626770e-08
    9.695767846620e-01 3.325000000000e+02 1.259725266579e+00-8.312489105680e-09
    2.460816788611e-10 1.000000000000e+00 2.202000000000e+03 0.000000000000e+00
    2.400000000000e+00 0.000000000000e+00-1.257285475731e-08 4.500000000000e+01
    7.200000000000e+03 4.000000000000e+00
 9 22  3 20  4  0  0.0-3.487984649837e-04 2.160049916711e-12 0.000000000000e+00
    5.200000000000e+01-6.984375000000e+01 4.757341019492e-09 6.238608502171e-01
   -3.764405846596e-06 2.158430404961e-03 8.599832653999e-06 5.153601293564e+03
    1.440000000000e+04-5.215406417847e-08-4.721703215949e-01 3.725290298462e-09
    9.544760205231e-01 2.100625000000e+02 1.875893787786e+00-8.231771457751e-09
   -6.518128649079e-10 1.000000000000e+00 2.202000000000e+03 0.000000000000e+00
    2.400000000000e+00 0.000000000000e+00 1.396983861923e-09 5.200000000000e+01
    7.200000000000e+03 4.000000000000e+00
 7 22  3 20  4  0  0.0 3.168717958033e-04 1.818989403546e-12 0.000000000000e+00
    5.400000000000e+01 7.696875000000e+01 4.225533153274e-09-2.691981683020e+00
    3.721565008163e-06 1.571036432870e-02 1.277215778828e-05 5.153691606522e+03
    1.440000000000e+04 6.705522537231e-08 5.991975596692e-01-1.378357410431e-07
    9.512535148186e-01 1.255312500000e+02-2.284366710528e+00-7.678891285216e-09
    2.796545058755e-10 1.000000000000e+00 2.202000000000e+03 0.000000000000e+00
    2.400000000000e+00 0.000000000000e+00-1.117587089539e-08 5.400000000000e+01
    7.200000000000e+03 4.000000000000e+00
13 22  3 20  4  0  0.0 2.798093482852e-04 6.366462912410e-12 0.000000000000e+00
    2.800000000000e+01-6.893750000000e+01 4.409112228651e-09-3.040826010723e-01
   -3.578141331673e-06 5.825523170643e-03 1.005083322525e-05 5.153676622391e+03
    1.440000000000e+04 2.607703208923e-08-3.188448649856e-01 5.774199962616e-08
    9.690072223775e-01 1.862187500000e+02 9.421501076937e-01-8.121409717885e-09
   -7.064579982399e-10 1.000000000000e+00 2.202000000000e+03 0.000000000000e+00
    2.400000000000e+00 0.000000000000e+00-1.117587089539e-08 2.800000000000e+01
    7.200000000000e+03 4.000000000000e+00
